SL-16 R/B               
1 28353U 04021B   25214.45697965 -.00000110  00000+0 -32416-4 0  9996
2 28353  71.0022 332.5560 0005049 347.2791  12.8203 14.14550652 91830
CZ-4B R/B               
1 28415U 04035C   25213.11423543  .00008260  00000+0  33022-3 0  9996
2 28415  97.3777 245.3520 0036016  31.5638 328.7749 15.24755982146251
CZ-2C R/B               
1 28480U 04046B   25214.35717403  .00000155  00000+0  72476-4 0  9990
2 28480  98.1917 138.0396 0140970  83.5240 278.1971 14.26849987 77223
ARIANE 5 R/B            
1 28499U 04049H   25214.02833512  .00000641  00000+0  78436-4 0  9999
2 28499  98.2397   9.6993 0084816 343.7071  16.1419 14.84593347113218
CZ-2D R/B               
1 28738U 05024B   25213.50420936  .00020386  00000+0  42908-3 0  9995
2 28738  97.3689 218.2318 0008400 110.5090 249.7062 15.45282328105630
ALOS (DAICHI)           
1 28931U 06002A   25214.43093778  .00001572  00000+0  27743-3 0  9996
2 28931  98.0865 167.0913 0000682  83.9720 276.1563 14.68854879 41660
H-2A R/B                
1 28932U 06002B   25213.77742813  .00006937  00000+0  39876-3 0  9994
2 28932  98.2163 338.1739 0056903 267.2604  92.2111 15.11470220 61162
RESURS-DK 1             
1 29228U 06021A   25213.16083932  .00002348  00000+0  14591-3 0  9996
2 29228  69.9334  86.7611 0001791 109.1899 250.9460 15.11166323 54210
CZ-4B R/B               
1 29507U 06046C   25213.54339796  .00004386  00000+0  24090-3 0  9996
2 29507  97.5926 254.0409 0033959 310.3598  49.4670 15.14162962 26741
CZ-2C R/B               
1 31114U 07010B   25213.34913505  .00000117  00000+0  72859-4 0  9994
2 31114  98.3841 332.8242 0058468 213.9714 145.7714 14.20141351948447
COSMO-SKYMED 1          
1 31598U 07023A   25214.54227237  .00000889  00000+0  87542-4 0  9998
2 31598  97.8890  39.1724 0001429  86.8470 273.2913 14.94621683982217
GENESIS 2               
1 31789U 07028A   25214.16993781  .00239693  28685-4  67956-3 0  9994
2 31789  64.4671 223.5663 0024760 302.2656  57.6104 15.92615848  1461
COSMOS 2428             
1 31792U 07029A   25214.20542557  .00000220  00000+0  14377-3 0  9992
2 31792  70.9443 304.0782 0005250 233.8046 126.2590 14.12896592933178
SL-16 R/B               
1 31793U 07029B   25214.17678934 -.00000301  00000+0 -13105-3 0  9998
2 31793  70.9749 273.8012 0002735 278.2992 147.8014 14.14790274934415
KORONAS-FOTON           
1 33504U 09003A   25214.18797534  .00010056  00000+0  27218-3 0  9999
2 33504  82.4336 142.9894 0010508 215.6470 144.4074 15.37480907912087
CZ-2C R/B               
1 37731U 11030B   25214.47991662  .00001504  00000+0  19955-3 0  9995
2 37731  97.8179 171.7593 0053061 345.3360 128.3633 14.80328337757651
H-2A R/B                
1 38341U 12025E   25214.41126237  .00002932  00000+0  28118-3 0  9997
2 38341  98.4381 159.7618 0044985 310.7245  49.0070 14.93265538715552
SHIJIAN-16 (SJ-16)      
1 39358U 13057A   25214.54386774  .00000791  00000+0  81731-4 0  9992
2 39358  74.9697 239.6565 0018331 284.6253  75.2901 14.91474777638893
SL-4 R/B                
1 39679U 14021B   25213.67185342  .00008718  00000+0  23699-3 0  9996
2 39679  51.6096 324.9083 0111467  24.9659 335.6656 15.32352310622466
ALOS-2                  
1 39766U 14029A   25214.45317673  .00001002  00000+0  14100-3 0  9998
2 39766  97.9227 311.1932 0001512  98.8176 261.3207 14.79477225604488
YAOGAN-29               
1 41038U 15069A   25214.48708338  .00000445  00000+0  61852-4 0  9990
2 41038  98.0338 237.1226 0001679  35.8751 324.2575 14.82684013523391
ASTRO-H (HITOMI)        
1 41337U 16012A   25213.64745382  .00003264  00000+0  19958-3 0  9999
2 41337  31.0013 334.5889 0009974 282.9802  76.9722 15.08262970518960
HXMT (HUIYAN)           
1 42758U 17034A   25214.28672021  .00005224  00000+0  28892-3 0  9997
2 42758  43.0136 153.4285 0035590 289.6755  70.0253 15.14229057449265
CZ-2C R/B               
1 43521U 18054D   25213.64231587  .00035969  00000+0  50558-3 0  9999
2 43521  35.1393 347.9608 0031708 321.3900  38.4561 15.55038470394220
SAOCOM 1A               
1 43641U 18076A   25214.48618859  .00000427  00000+0  60248-4 0  9999
2 43641  97.8897  40.7975 0001395  90.5880 269.5493 14.82159702368899
H-2A R/B                
1 43682U 18084L   25214.42859604  .00014147  00000+0  45713-3 0  9995
2 43682  98.8808  21.7860 0031899  59.8362 300.6029 15.31754372372115
SAOCOM 1B               
1 46265U 20059A   25214.51746685  .00000424  00000+0  59821-4 0  9993
2 46265  97.8901  39.9330 0001405  90.8683 269.2691 14.82149513266298
CSS (TIANHE)            
1 48274U 21035A   25214.47545242  .00024660  00000+0  33030-3 0  9992
2 48274  41.4648 100.1394 0005016  44.4964 315.6276 15.57404056243371
COSMOS 2550             
1 48865U 21056A   25214.48509919  .00002831  00000+0  91831-4 0  9993
2 48865  67.1438 344.0495 0008429 270.0616  89.9573 15.33828948229854
CZ-2C R/B               
1 52794U 22058K   25213.77453488  .00015190  00000+0  34867-3 0  9999
2 52794  50.1946 357.3972 0055158   3.4357 356.6976 15.41288308176080
GSLV R/B                
1 54149U 22138AN  25214.10475388  .00001964  00000+0  17644-3 0  9993
2 54149  87.3762 239.8790 0020392 223.8590 136.1022 14.95013946151106
XRISM                   
1 57800U 23137A   25214.50361131  .00003460  00000+0  21083-3 0  9999
2 57800  31.0015 257.9863 0007870 358.0744   1.9862 15.08469829104716
ACS3                    
1 59588U 24077B   25214.47799769  .00013357  00000+0  12738-1 0  9997
2 59588  97.4310 198.9194 0073759  39.6887 320.9636 13.79421250 63871
